SHIYAN-28B 02           
1 65226U 25177A   25257.62905816  .00000631  00000+0  77564-4 0  9993
2 65226  10.9975 289.4079 0003433  56.2670 303.7885 14.29100500  4057
SKYKRAFT-4E             
1 65227U 25154L   25257.49529751  .00003159  00000+0  30988-3 0  9990
2 65227  97.7063 322.4904 0006816 104.6971 255.5005 14.92908237  6125
HULIANWANG DIGUI 9A     
1 65228U 25178A   25246.26350611  .00000073  00000+0  74049-4 0  9996
2 65228  86.4940 110.7849 0001577  92.9471 267.1865 13.61818725  2276
HULIANWANG DIGUI 9B     
1 65229U 25178B   25255.18374686  .00000064  00000+0  75005-4 0  9999
2 65229  86.4956 107.5999 0002752  42.1710 317.9651 13.51164254  3484
HULIANWANG DIGUI 9C     
1 65230U 25178C   25246.25494998 -.00000210  00000+0 -29267-3 0  9991
2 65230  86.4898 110.7695 0001513  94.1107 266.0222 13.62199386  2271
HULIANWANG DIGUI 9D     
1 65231U 25178D   25241.77794399  .00000031  00000+0  17112-4 0  9998
2 65231  86.4892 112.4106 0005371 173.9796 186.1428 13.66453661  1663
HULIANWANG DIGUI 9E     
1 65232U 25178E   25241.70281900  .00000054  00000+0  45001-4 0  9994
2 65232  86.4977 112.4228 0005610 161.6425 198.4937 13.67245238  1652
CZ-6A R/B               
1 65233U 25178F   25257.62469115  .00000029  00000+0  80447-5 0  9995
2 65233  86.5034 106.1976 0104283  30.8279 329.8962 13.94579607  3917
CZ-4C R/B               
1 65234U 25177B   25257.48712602  .00001090  00000+0  94535-4 0  9992
2 65234  10.9951 281.5753 0151068  12.3790 348.0105 14.57564282  4101
STARLINK-34842          
1 65235U 25179A   25257.33337963 -.00015807  00000+0 -40409-3 0  9995
2 65235  97.6042 298.4337 0000762  79.2844  48.9200 15.39328934  5292
STARLINK-34938          
1 65236U 25179B   25257.58335648  .00069351  00000+0  17663-2 0  9997
2 65236  97.6042 298.7737 0001180 105.2230 149.2115 15.39308427  5334
STARLINK-34958          
1 65237U 25179C   25257.33337963 -.00017071  00000+0 -43643-3 0  9995
2 65237  97.6042 298.4740 0001465  90.4255 127.7429 15.39343755  5392
STARLINK-34818          
1 65238U 25179D   25257.58335648 -.01487569  00000+0 -36275-1 0  9996
2 65238  97.6044 298.8143 0001532  90.7329 243.3528 15.43845984  5432
STARLINK-34964          
1 65239U 25179E   25257.33337963 -.00009455  00000+0 -24045-3 0  9999
2 65239  97.6044 298.4641 0001343  93.7396 100.4301 15.39346732  5242
STARLINK-34953          
1 65240U 25179F   25257.58335648  .00062350  00000+0  15883-2 0  9996
2 65240  97.6042 298.7543 0001387  80.7111 129.7825 15.39335472  5430
STARLINK-34969          
1 65241U 25179G   25257.58335648  .00065761  00000+0  16761-2 0  9992
2 65241  97.6041 298.7942 0001686  95.6778 200.8826 15.39302261  5273
STARLINK-34963          
1 65242U 25179H   25257.33337963 -.01630420  00000+0 -34269-1 0  9993
2 65242  97.6035 298.5555 0001184  78.9324 323.5261 15.48439283  5393
STARLINK-34982          
1 65243U 25179J   25257.33337963 -.00016070  00000+0 -41069-3 0  9990
2 65243  97.6040 298.4846 0000908  93.1457 149.0154 15.39341456  5409
STARLINK-34990          
1 65244U 25179K   25257.58335648 -.00912332  00000+0 -24954-1 0  9994
2 65244  97.6038 298.8062 0001965  89.6473 230.5927 15.39955004  5339
STARLINK-34977          
1 65245U 25179L   25257.58335648  .00068987  00000+0  17567-2 0  9994
2 65245  97.6040 298.7642 0001333  78.1573 154.3770 15.39317170  5244
STARLINK-34959          
1 65246U 25179M   25257.33337963 -.00017494  00000+0 -44735-3 0  9997
2 65246  97.6041 298.4448 0000979  88.2202  63.9511 15.39342003  5244
STARLINK-34923          
1 65247U 25179N   25257.33337963 -.00016645  00000+0 -42550-3 0  9998
2 65247  97.6041 298.4642 0001253  99.4225  96.7501 15.39340348  5294
STARLINK-34962          
1 65248U 25179P   25257.58335648  .00063832  00000+0  16263-2 0  9993
2 65248  97.6042 298.7830 0000844  86.3565 190.1225 15.39324178  5289
STARLINK-34925          
1 65249U 25179Q   25257.58335648 -.01489441  00000+0 -35728-1 0  9991
2 65249  97.6037 298.8249 0001430  95.9634 261.7528 15.44334799  5270
STARLINK-34973          
1 65250U 25179R   25257.33337963 -.01530101  00000+0 -30818-1 0  9993
2 65250  97.6038 298.5630 0001601  75.4738 342.6191 15.49452624  5236
STARLINK-34989          
1 65251U 25179S   25257.33337963 -.01606333  00000+0 -34111-1 0  9995
2 65251  97.6040 298.5648 0001683  99.7024 319.7338 15.48095167  5407
STARLINK-34961          
1 65252U 25179T   25257.58335648  .00066220  00000+0  16873-2 0  9999
2 65252  97.6044 298.7966 0001228  90.2012 218.3291 15.39310527  5283
STARLINK-34933          
1 65253U 25179U   25257.33337963 -.00013974  00000+0 -35675-3 0  9997
2 65253  97.6041 298.4797 0000411  55.8030 174.3601 15.39341584  5249
STARLINK-34979          
1 65254U 25179V   25257.33337963 -.00019136  00000+0 -48965-3 0  9990
2 65254  97.6041 298.4687 0000606  84.7190 121.4504 15.39342351  5240
STARLINK-34987          
1 65255U 25179W   25257.33337963 -.00001051  00000+0 -24723-4 0  9995
2 65255  97.6040 298.4919 0001193  96.0279 158.1320 15.39350564  5231
STARLINK-34971          
1 65256U 25179X   25257.58335648  .00077274  00000+0  19668-2 0  9999
2 65256  97.6039 298.8102 0001185  74.7453 257.8025 15.39294045  5438
STARLINK-34966          
1 65257U 25179Y   25257.58335648 -.01845083  00000+0 -48775-1 0  9994
2 65257  97.6045 298.8236 0001299  60.4811 293.7930 15.41617775  5380
STARLINK-34980          
1 65258U 25179Z   25257.58335648  .00073978  00000+0  18804-2 0  9999
2 65258  97.6041 298.7788 0001378  62.2828 202.1596 15.39349493  5270
2025-180A               
1 65259U 25180A   25254.38681646  .00009579  00000+0  55260-3 0  9993
2 65259  97.4935  20.5095 0015004 202.4983 157.5592 15.12470895  3497
2025-180B               
1 65260U 25180B   25254.39129348  .00003386  00000+0  20085-3 0  9999
2 65260  97.4949  20.5068 0014591 198.8692 161.2000 15.11935818  3484
2025-180C               
1 65261U 25180C   25257.63411753  .00005279  00000+0  31064-3 0  9996
2 65261  97.4938  23.6847 0015287 190.0635 170.0292 15.11965768  3978
2025-180D               
1 65262U 25180D   25254.39108428  .00004276  00000+0  25271-3 0  9998
2 65262  97.4952  20.5079 0014542 196.3521 163.7242 15.11929455  3487
2025-180E               
1 65263U 25180E   25254.38691161  .00002869  00000+0  16930-3 0  9997
2 65263  97.4939  20.5087 0013510 192.3044 167.7859 15.12261620  3484
ZK-1A R/B               
1 65264U 25180F   25257.57988468  .00112335  56722-5  54480-3 0  9991
2 65264  97.5772  25.7901 0191232 293.4892  64.6369 15.60471539  4088
BION-M 02               
1 65265U 25181A   25255.78591924  .01459314  11254-5  18977-3 0  9995
2 65265  95.5069 326.2962 0253492  68.0839 294.7176 15.85063796  3637
COSMOS 2591             
1 65267U 25182A   25254.40208199  .00031536  00000+0  15461-3 0  9992
2 65267  96.5862 187.5809 0015780 160.0149 200.1743 15.82001352  3315
COSMOS 2592             
1 65268U 25182B   25254.40244434  .00030041  00000+0  14773-3 0  9990
2 65268  96.5858 187.5810 0015561 159.3294 200.8610 15.81949103  3316
COSMOS 2593             
1 65269U 25182C   25254.40374829  .00033574  00000+0  16591-3 0  9997
2 65269  96.5872 187.5772 0015866 160.6701 199.5175 15.81818717  3312
COSMOS 2594             
1 65270U 25182D   25254.34081583  .00034009  00000+0  16842-3 0  9997
2 65270  96.5870 187.5172 0015858 160.2879 199.9008 15.81770234  3320
STARLINK-34922          
1 65273U 25184A   25257.58335648  .00095427  00000+0  24238-2 0  9993
2 65273  97.6035 307.9921 0001571  88.8374 224.9841 15.39277162  4803
STARLINK-34904          
1 65274U 25184B   25257.58335648  .00099475  00000+0  18108-2 0  9990
2 65274  97.6041 308.0111 0001519  96.8360 266.5044 15.49138977  4808
STARLINK-34954          
1 65275U 25184C   25257.58335648 -.01575012  00000+0 -32862-1 0  9992
2 65275  97.6039 308.0117 0001552  94.8335 270.1858 15.48537194  4806
STARLINK-34968          
1 65276U 25184D   25257.58335648  .00115418  00000+0  20962-2 0  9999
2 65276  97.6042 308.0138 0001460  92.2446 274.9255 15.49141980  4805
STARLINK-34935          
1 65277U 25184E   25257.58335648 -.01478768  00000+0 -36484-1 0  9998
2 65277  97.6041 308.0128 0001535  91.7965 261.1070 15.43483694  4805
STARLINK-35000          
1 65278U 25184F   25257.58335648  .00098532  00000+0  17938-2 0  9997
2 65278  97.6040 308.0146 0001560  96.9767 274.0471 15.49139386  4800
STARLINK-35023          
1 65279U 25184G   25257.58335648  .00101960  00000+0  18554-2 0  9993
2 65279  97.6041 308.0156 0001522  95.9023 277.0428 15.49138269  4809
STARLINK-35001          
1 65280U 25184H   25257.58335648  .00100087  00000+0  18219-2 0  9992
2 65280  97.6040 308.0163 0001450  94.1360 280.7322 15.49136428  4802
STARLINK-35010          
1 65281U 25184J   25257.58335648 -.00702675  00000+0 -19173-1 0  9995
2 65281  97.6034 308.0027 0001774 101.1269 234.4435 15.39786358  4804
STARLINK-35021          
1 65282U 25184K   25257.58335648 -.01448630  00000+0 -33970-1 0  9996
2 65282  97.6038 308.0204 0001609  96.4937 273.2289 15.44916702  4757
STARLINK-35015          
1 65283U 25184L   25257.58335648 -.01586944  00000+0 -32164-1 0  9992
2 65283  97.6039 308.0181 0001700 109.3443 271.2508 15.49383994  4805
STARLINK-35006          
1 65284U 25184M   25257.58335648  .00100662  00000+0  18323-2 0  9991
2 65284  97.6041 308.0207 0001482  94.5519 289.9195 15.49136064  4806
STARLINK-34995          
1 65285U 25184N   25257.58335648  .00113911  00000+0  20691-2 0  9994
2 65285  97.6041 308.0206 0001407  96.1289 286.4061 15.49143710  4805
STARLINK-35048          
1 65286U 25184P   25257.58335648  .00098833  00000+0  17989-2 0  9996
2 65286  97.6040 308.0216 0001411  85.9741 300.3238 15.49144084  4751
STARLINK-35007          
1 65287U 25184Q   25257.58335648  .00128695  00000+0  23343-2 0  9998
2 65287  97.6047 308.0241 0001451  99.3243 288.9901 15.49128650  4745
